OBJECT_NAME,OBJECT_ID,EPOCH,MEAN_MOTION,ECCENTRICITY,INCLINATION,RA_OF_ASC_NODE,ARG_OF_PERICENTER,MEAN_ANOMALY,EPHEMERIS_TYPE,CLASSIFICATION_TYPE,NORAD_CAT_ID,ELEMENT_SET_NO,REV_AT_EPOCH,BSTAR,MEAN_MOTION_DOT,MEAN_MOTION_DDOT
BEIDOU-2 IGSO-5 (C10),2011-073A,2026-07-02T17:30:18.330912,1.00270596,.01145273,47.6496,271.3544,222.0502,141.5350,0,U,37948,999,5329,0,-.128E-5,0
LUCH 5A (SDCM/PRN 140),2011-074B,2026-07-23T13:29:46.984704,1.00274982,.0002919,8.8434,73.2704,62.5670,174.9527,0,U,37951,999,5341,0,-.52E-6,0
BEIDOU-2 G5 (C05),2012-008A,2026-07-23T14:58:26.679360,1.00273688,.00070186,3.6625,69.4652,271.4470,243.7225,0,U,38091,999,5273,0,.58E-6,0
BEIDOU-2 M3 (C11),2012-018A,2026-07-23T03:57:27.950112,1.86229793,.00211216,55.7243,303.6615,272.1845,87.6047,0,U,38250,999,9661,0,-.99E-6,0
BEIDOU-2 M4 (C12),2012-018B,2026-07-23T15:13:16.737600,1.86229554,.00123057,55.6237,302.8566,271.9994,87.8924,0,U,38251,999,9662,0,-.95E-6,0
SES-5 (EGNOS/PRN 136),2012-036A,2026-07-23T13:00:31.519872,1.00270602,.00022725,0.0431,324.2324,152.1642,24.9746,0,U,38652,999,4482,0,.38E-6,0
BEIDOU-2 M6 (C14),2012-050B,2026-07-20T02:55:43.188960,1.86230986,.00127267,56.5733,61.8055,2.2324,357.8361,0,U,38775,999,9392,0,-.77E-6,0
GSAT-10 (GAGAN/PRN 128),2012-051B,2026-07-23T13:22:46.698816,1.00272373,.00076638,0.0709,262.3819,194.2162,128.3982,0,U,38779,999,5046,0,-.16E-5,0
GPS BIIF-3  (PRN 24),2012-053A,2026-07-23T05:06:38.117088,2.00568155,.01825502,53.5904,142.1233,66.3747,295.5069,0,U,38833,999,10016,0,-.8E-7,0
GSAT0103 (GALILEO-FM3),2012-055A,2026-07-19T03:38:04.424640,1.70473478,.0003622,55.8248,100.6680,312.6356,47.3724,0,U,38857,999,8555,0,-.35E-6,0
BEIDOU-2 G6 (C02),2012-059A,2026-07-23T15:05:40.985376,1.00273149,.00089275,4.5115,73.1264,329.8199,208.8701,0,U,38953,999,5027,0,-.175E-5,0
LUCH 5B (SDCM/PRN 125),2012-061A,2026-07-23T09:29:05.515008,1.00270872,.00038788,10.5601,49.5175,141.8135,235.7589,0,U,38977,999,4997,0,-.141E-5,0
COSMOS 2485 (747),2013-019A,2026-07-23T01:01:54.411168,2.13103192,.00225529,65.4401,72.4015,230.4230,129.4454,0,U,39155,999,10304,0,-.47E-6,0
GPS BIIF-4  (PRN 27),2013-023A,2026-07-22T02:00:32.597568,2.00563446,.01414045,54.4778,267.5502,51.1079,310.2126,0,U,39166,999,9658,0,-.25E-6,0
IRNSS-1A,2013-034A,2026-07-22T16:42:46.468224,1.00271851,.00187917,35.7966,63.3613,179.4799,3.3059,0,U,39199,999,4772,0,.51E-6,0
GPS BIIF-5  (PRN 30),2014-008A,2026-07-23T01:59:08.716992,2.00562163,.0084019,53.6583,147.8555,231.5746,127.6451,0,U,39533,999,9040,0,.4E-7,0
ASTRA 5B (EGNOS/PRN 123),2014-011B,2026-07-23T13:05:46.016736,1.00272878,.00022586,0.0610,314.4452,175.2866,31.4283,0,U,39617,999,4503,0,.142E-5,0
COSMOS 2492 (754),2014-012A,2026-07-22T12:46:55.939296,2.13103190,.00103158,65.2744,312.7343,316.2983,43.6400,0,U,39620,999,9599,0,-.9E-6,0
IRNSS-1B,2014-017A,2026-07-22T16:42:46.468224,1.00267424,.00213406,28.8725,239.7926,191.4522,174.9685,0,U,39635,999,4515,0,.145E-5,0
LUCH 5V (SDCM/PRN 141),2014-023A,2026-07-23T13:26:08.875680,1.00271514,.00023902,5.2206,69.3649,78.5689,89.6383,0,U,39727,999,4472,0,-.269E-5,0
GPS BIIF-6  (PRN 06),2014-026A,2026-07-22T20:39:03.010464,2.00558517,.00381938,56.4788,330.1290,325.5577,34.2000,0,U,39741,999,8925,0,-.112E-5,0
COSMOS 2500 (755),2014-032A,2026-07-23T04:06:27.448992,2.13105924,.00085173,65.2090,312.4566,191.8913,168.1090,0,U,40001,999,9422,0,-.89E-6,0
GPS BIIF-7  (PRN 09),2014-045A,2026-07-21T22:54:59.872896,2.00560807,.00347316,55.3757,87.0796,118.5166,241.8833,0,U,40105,999,8677,0,-.67E-6,0
GSAT0201 (GALILEO 5),2014-050A,2026-07-21T21:53:14.723808,1.85519659,.16792967,48.8375,272.0101,180.7600,179.0021,0,U,40128,999,7896,0,-.55E-6,0
GSAT0202 (GALILEO 6),2014-050B,2026-07-22T16:57:11.028096,1.85520638,.16807347,48.8542,271.0635,181.4997,177.9799,0,U,40129,999,8114,0,-.45E-6,0
IRNSS-1C,2014-061A,2026-07-23T03:42:38.687616,1.00271046,.00218769,6.6060,88.2456,6.3819,344.9692,0,U,40269,999,4304,0,-.164E-5,0
GPS BIIF-8  (PRN 03),2014-068A,2026-07-23T07:39:42.196032,2.00553866,.00674585,57.0124,29.5642,72.5690,288.2082,0,U,40294,999,8593,0,-.75E-6,0
COSMOS 2501 (702K),2014-075A,2026-07-21T13:21:28.563840,2.13101380,.00225959,63.6189,189.1825,212.4587,147.4043,0,U,40315,999,9058,0,.9E-6,0
GPS BIIF-9  (PRN 26),2015-013A,2026-07-20T23:12:44.735616,2.00574219,.01103224,53.1254,202.7533,40.4930,320.3352,0,U,40534,999,8250,0,.74E-6,0
GSAT0203 (GALILEO 7),2015-017A,2026-07-21T05:37:49.022688,1.70476352,.00028415,56.7744,340.6686,253.2571,106.7061,0,U,40544,999,6978,0,-.108E-5,0
GSAT0204 (GALILEO 8),2015-017B,2026-07-23T06:00:20.062944,1.70475959,.0003029,56.7812,340.6325,234.2784,125.6881,0,U,40545,999,3286,0,-.106E-5,0
